H1 CPF 01  gfz 2021 12 20 13  8542 terrasarx 
H2 0702601  6201 31698    2021 12 20 12 59 42 2021 12 25 00 00 42   120 1 1  0 0 0
H9
10 0 59572  32382.000000  0    2880621.853  -1735500.679   6001448.135
10 0 59572  32502.000000  0    3366754.693  -2352234.811   5520208.730
10 0 59572  32622.000000  0    3783580.351  -2935783.669   4941864.248
10 0 59572  32742.000000  0    4124474.246  -3474663.433   4276555.065
10 0 59572  32862.000000  0    4384331.376  -3958063.251   3535963.310
10 0 59572  32982.000000  0    4559647.181  -4376066.767   2733110.076
10 0 59572  33102.000000  0    4648567.153  -4719859.974   1882125.467
10 0 59572  33222.000000  0    4650902.494  -4981919.615    997995.733
10 0 59572  33342.000000  0    4568111.401  -5156178.352     96292.994
10 0 59572  33462.000000  0    4403246.516  -5238161.387   -807106.625
10 0 59572  33582.000000  0    4160871.485  -5225092.203  -1696311.412
10 0 59572  33702.000000  0    3846945.616  -5115963.151  -2555702.386
10 0 59572  33822.000000  0    3468681.961  -4911570.056  -3370213.926
10 0 59572  33942.000000  0    3034382.044  -4614510.008  -4125601.270
10 0 59572  34062.000000  0    2553252.128  -4229144.324  -4808689.623
10 0 59572  34182.000000  0    2035205.409  -3761525.917  -5407599.960
10 0 59572  34302.000000  0    1490656.454  -3219295.306  -5911946.334
10 0 59572  34422.000000  0     930312.191  -2611549.895  -6313005.659
10 0 59572  34542.000000  0     364962.349  -1948686.954  -6603858.375
10 0 59572  34662.000000  0    -194725.802  -1242222.951  -6779497.002
10 0 59572  34782.000000  0    -738403.916   -504593.812  -6836902.656
10 0 59572  34902.000000  0   -1256228.669    251060.384  -6775090.718
10 0 59572  35022.000000  0   -1739035.974   1011123.591  -6595125.138
10 0 59572  35142.000000  0   -2178499.251   1761742.946  -6300102.004
10 0 59572  35262.000000  0   -2567270.293   2489074.852  -5895102.254
10 0 59572  35382.000000  0   -2899102.183   3179536.170  -5387114.221
10 0 59572  35502.000000  0   -3168951.231   3820056.677  -4784924.654
10 0 59572  35622.000000  0   -3373057.339   4398328.626  -4098978.039
10 0 59572  35742.000000  0   -3508998.954   4903047.478  -3341204.130
10 0 59572  35862.000000  0   -3575721.037   5324137.845  -2524817.951
10 0 59572  35982.000000  0   -3573537.602   5652961.967  -1664095.270
10 0 59572  36102.000000  0   -3504106.641   5882505.741   -774124.018
10 0 59572  36222.000000  0   -3370376.421   6007534.546    129463.857
10 0 59572  36342.000000  0   -3176507.007   6024715.322   1030772.208
10 0 59572  36462.000000  0   -2927765.698   5932702.328   1913930.588
10 0 59572  36582.000000  0   -2630397.571   5732180.847   2763384.340
10 0 59572  36702.000000  0   -2291477.340   5425868.317   3564176.547
10 0 59572  36822.000000  0   -1918746.901   5018475.416   4302216.670
10 0 59572  36942.000000  0   -1520442.107   4516627.807   4964531.596
10 0 59572  37062.000000  0   -1105112.210   3928750.895   5539494.533
10 0 59572  37182.000000  0    -681437.242   3264919.534   6017026.363
10 0 59572  37302.000000  0    -258048.057   2536677.295   6388767.515
10 0 59572  37422.000000  0     156647.984   1756830.014   6648217.788
10 0 59572  37542.000000  0     554632.647    939217.125   6790844.762
10 0 59572  37662.000000  0     928430.744     98464.000   6814157.235
10 0 59572  37782.000000  0    1271249.348   -750278.484   6717746.105
10 0 59572  37902.000000  0    1577100.749  -1591606.584   6503292.086
10 0 59572  38022.000000  0    1840907.338  -2410142.536   6174538.527
10 0 59572  38142.000000  0    2058586.596  -3190816.529   5737230.803
10 0 59572  38262.000000  0    2227115.015  -3919146.737   5199021.137
10 0 59572  38382.000000  0    2344569.304  -4581511.456   4569339.929
10 0 59572  38502.000000  0    2410145.400  -5165409.534   3859236.437
10 0 59572  38622.000000  0    2424154.719  -5659704.710   3081188.030
10 0 59572  38742.000000  0    2387994.947  -6054847.009   2248881.399
10 0 59572  38862.000000  0    2304098.013  -6343064.912   1376968.912
10 0 59572  38982.000000  0    2175856.673  -6518523.605    480806.553
10 0 59572  39102.000000  0    2007530.419  -6577448.466   -423822.686
10 0 59572  39222.000000  0    1804133.504  -6518207.657  -1320996.949
10 0 59572  39342.000000  0    1571305.269  -6341348.582  -2194945.827
10 0 59572  39462.000000  0    1315169.045  -6049591.797  -3030334.708
10 0 59572  39582.000000  0    1042183.467  -5647778.571  -3812539.254
10 0 59572  39702.000000  0     758990.950  -5142778.872  -4527901.590
10 0 59572  39822.000000  0     472264.957  -4543361.507  -5163965.992
10 0 59572  39942.000000  0     188560.826  -3860030.382  -5709689.131
10 0 59572  40062.000000  0     -85826.708  -3104830.544  -6155622.781
10 0 59572  40182.000000  0    -344996.318  -2291129.010  -6494066.161
10 0 59572  40302.000000  0    -583560.906  -1433375.126  -6719187.385
10 0 59572  40422.000000  0    -796754.386   -546845.120  -6827113.975
10 0 59572  40542.000000  0    -980522.679    352626.503  -6815992.360
10 0 59572  40662.000000  0   -1131598.205   1248923.190  -6686014.922
10 0 59572  40782.000000  0   -1247556.642   2125927.630  -6439416.921
10 0 59572  40902.000000  0   -1326855.037   2967804.105  -6080442.478
10 0 59572  41022.000000  0   -1368851.437   3759280.418  -5615280.792
10 0 59572  41142.000000  0   -1373805.120   4485923.616  -5051969.489
10 0 59572  41262.000000  0   -1342857.643   5134405.914  -4400267.678
10 0 59572  41382.000000  0   -1277994.910   5692755.788  -3671496.940
10 0 59572  41502.000000  0   -1181990.099   6150587.527  -2878352.651
10 0 59572  41622.000000  0   -1058328.758   6499305.114  -2034689.259
10 0 59572  41742.000000  0    -911117.365   6732276.212  -1155280.397
10 0 59572  41862.000000  0    -744977.570   6844969.156   -255559.036
10 0 59572  41982.000000  0    -564927.779   6835051.712    648657.595
10 0 59572  42102.000000  0    -376255.457   6702446.389   1541454.750
10 0 59572  42222.000000  0    -184383.660   6449337.766   2407110.932
10 0 59572  42342.000000  0       5264.394   6080133.145   3230382.580
10 0 59572  42462.000000  0     187399.659   5601380.689   3996778.059
10 0 59572  42582.000000  0     356997.266   5021648.466   4692818.287
10 0 59572  42702.000000  0     509419.237   4351357.921   5306279.287
10 0 59572  42822.000000  0     640526.448   3602584.704   5826401.022
10 0 59572  42942.000000  0     746778.145   2788834.461   6244073.148
10 0 59572  43062.000000  0     825315.293   1924791.461   6551989.285
10 0 59572  43182.000000  0     874027.518   1026048.919   6744768.853
10 0 59572  43302.000000  0     891602.357    108824.917   6819044.969
10 0 59572  43422.000000  0     877555.921   -810329.138   6773519.464
10 0 59572  43542.000000  0     832244.236  -1714826.833   6608985.509
10 0 59572  43662.000000  0     756855.121  -2588345.801   6328314.982
10 0 59572  43782.000000  0     653380.740  -3415123.700   5936411.892
10 0 59572  43902.000000  0     524570.868  -4180244.466   5440129.253
10 0 59572  44022.000000  0     373869.393  -4869909.310   4848155.060
10 0 59572  44142.000000  0     205334.377  -5471691.551   4170867.860
10 0 59572  44262.000000  0      23541.846  -5974770.957   3420159.846
10 0 59572  44382.000000  0    -166524.485  -6370138.895   2609229.731
10 0 59572  44502.000000  0    -359594.403  -6650769.557   1752349.072
10 0 59572  44622.000000  0    -550240.724  -6811753.181    864608.388
10 0 59572  44742.000000  0    -733014.179  -6850390.474    -38355.702
10 0 59572  44862.000000  0    -902580.080  -6766239.878   -940646.066
10 0 59572  44982.000000  0   -1053852.218  -6561118.291  -1826394.101
10 0 59572  45102.000000  0   -1182121.283  -6239057.203  -2680046.079
10 0 59572  45222.000000  0   -1283175.069  -5806215.757  -3486642.170
10 0 59572  45342.000000  0   -1353407.187  -5270751.884  -4232082.051
10 0 59572  45462.000000  0   -1389911.272  -4642655.463  -4903370.340
10 0 59572  45582.000000  0   -1390558.984  -3933550.131  -5488837.532
10 0 59572  45702.000000  0   -1354060.345  -3156468.755  -5978334.644
10 0 59572  45822.000000  0   -1280005.245  -2325607.071  -6363399.284
10 0 59572  45942.000000  0   -1168885.705  -1456060.424  -6637390.459
10 0 59572  46062.000000  0   -1022099.093   -563550.070  -6795591.784
10 0 59572  46182.000000  0    -841932.393    335857.371  -6835283.902
10 0 59572  46302.000000  0    -631526.602   1226032.627  -6755785.159
10 0 59572  46422.000000  0    -394823.113   2091065.319  -6558461.837
10 0 59572  46542.000000  0    -136493.037   2915540.977  -6246707.768
10 0 59572  46662.000000  0     138151.299   3684811.686  -5825893.918
10 0 59572  46782.000000  0     423261.313   4385255.203  -5303284.682
10 0 59572  46902.000000  0     712570.613   5004517.477  -4687923.687
10 0 59572  47022.000000  0     999526.082   5531737.081  -3990488.908
10 0 59572  47142.000000  0    1277429.357   5957744.959  -3223116.645
10 0 59572  47262.000000  0    1539585.389   6275235.027  -2399197.643
10 0 59572  47382.000000  0    1779455.157   6478902.205  -1533147.211
10 0 59572  47502.000000  0    1990809.107   6565543.087   -640152.359
10 0 59572  47622.000000  0    2167877.038   6534115.032    264099.107
10 0 59572  47742.000000  0    2305490.130   6385752.017   1163700.798
10 0 59572  47862.000000  0    2399212.008   6123737.133   2042815.212
10 0 59572  47982.000000  0    2445455.186   5753432.075   2885960.648
10 0 59572  48102.000000  0    2441580.409   5282165.744   3678291.410
10 0 59572  48222.000000  0    2385975.816   4719084.265   4405865.966
10 0 59572  48342.000000  0    2278113.355   4074965.087   5055897.813
10 0 59572  48462.000000  0    2118580.564   3361998.831   5616979.084
10 0 59572  48582.000000  0    1909090.335   2593551.609   6079276.030
10 0 59572  48702.000000  0    1652467.253   1783908.860   6434697.453
10 0 59572  48822.000000  0    1352609.802    948004.323   6677030.897
99
